{
  "type": "FeatureCollection",
  "features": [
    {
      "type": "Feature",
      "properties": {
        "norad_id": 67133,
        "name": "KUIPER-00144",
        "group": "last-30-days",
        "lat": 42.48371116519503,
        "lon": 101.56870393284424,
        "alt_km": 451.897879363677,
        "timestamp": "2025-12-27T03:58:42.935370+00:00",
        "meta_object_name": "KUIPER-00144",
        "meta_object_id": "2025-301A",
        "meta_epoch": "2025-12-26T18:20:59.680032",
        "meta_mean_motion": 15.35482899,
        "meta_eccentricity": 0.0006208,
        "meta_inclination": 51.8706,
        "meta_ra_of_asc_node": 57.503,
        "meta_arg_of_pericenter": 123.3894,
        "meta_mean_anomaly": 236.7686,
        "meta_ephemeris_type": 0,
        "meta_classification_type": "U",
        "meta_norad_cat_id": 67133,
        "meta_element_set_no": 999,
        "meta_rev_at_epoch": 252,
        "meta_bstar": 0.00095145,
        "meta_mean_motion_dot": 0.00033088,
        "meta_mean_motion_ddot": 0,
        "tle_line1": "1 67133U 25301A   25360.76457963  .00033088  00000+0  95145-3 0  9992",
        "tle_line2": "2 67133  51.8706  57.5030 0006208 123.3894 236.7686 15.35482899  2526"
      },
      "geometry": {
        "type": "Point",
        "coordinates": [
          101.56870393284424,
          42.48371116519503
        ]
      }
    },
    {
      "type": "Feature",
      "properties": {
        "norad_id": 67134,
        "name": "KUIPER-00164",
        "group": "last-30-days",
        "lat": 51.79615629049123,
        "lon": 141.8337821790685,
        "alt_km": 448.198754596433,
        "timestamp": "2025-12-27T03:58:42.935379+00:00",
        "meta_object_name": "KUIPER-00164",
        "meta_object_id": "2025-301B",
        "meta_epoch": "2025-12-26T15:06:29.032416",
        "meta_mean_motion": 15.36165446,
        "meta_eccentricity": 0.0003215,
        "meta_inclination": 51.8731,
        "meta_ra_of_asc_node": 58.0973,
        "meta_arg_of_pericenter": 103.965,
        "meta_mean_anomaly": 256.1693,
        "meta_ephemeris_type": 0,
        "meta_classification_type": "U",
        "meta_norad_cat_id": 67134,
        "meta_element_set_no": 999,
        "meta_rev_at_epoch": 268,
        "meta_bstar": 0.0006672,
        "meta_mean_motion_dot": 0.00023565,
        "meta_mean_motion_ddot": 0,
        "tle_line1": "1 67134U 25301B   25360.62950269  .00023565  00000+0  66720-3 0  9991",
        "tle_line2": "2 67134  51.8731  58.0973 0003215 103.9650 256.1693 15.36165446  2684"
      },
      "geometry": {
        "type": "Point",
        "coordinates": [
          141.8337821790685,
          51.79615629049123
        ]
      }
    },
    {
      "type": "Feature",
      "properties": {
        "norad_id": 67135,
        "name": "KUIPER-00175",
        "group": "last-30-days",
        "lat": 48.821247148609146,
        "lon": 171.5924376067932,
        "alt_km": 448.328854359469,
        "timestamp": "2025-12-27T03:58:42.935389+00:00",
        "meta_object_name": "KUIPER-00175",
        "meta_object_id": "2025-301C",
        "meta_epoch": "2025-12-26T19:42:42.118848",
        "meta_mean_motion": 15.36621513,
        "meta_eccentricity": 0.0002301,
        "meta_inclination": 51.8745,
        "meta_ra_of_asc_node": 57.1268,
        "meta_arg_of_pericenter": 57.6434,
        "meta_mean_anomaly": 302.4774,
        "meta_ephemeris_type": 0,
        "meta_classification_type": "U",
        "meta_norad_cat_id": 67135,
        "meta_element_set_no": 999,
        "meta_rev_at_epoch": 260,
        "meta_bstar": 0.00053937,
        "meta_mean_motion_dot": 0.00019249,
        "meta_mean_motion_ddot": 0,
        "tle_line1": "1 67135U 25301C   25360.82132082  .00019249  00000+0  53937-3 0  9999",
        "tle_line2": "2 67135  51.8745  57.1268 0002301  57.6434 302.4774 15.36621513  2606"
      },
      "geometry": {
        "type": "Point",
        "coordinates": [
          171.5924376067932,
          48.821247148609146
        ]
      }
    },
    {
      "type": "Feature",
      "properties": {
        "norad_id": 67136,
        "name": "KUIPER-00179",
        "group": "last-30-days",
        "lat": 51.57909879827853,
        "lon": 153.53733323428736,
        "alt_km": 447.93917286955366,
        "timestamp": "2025-12-27T03:58:42.935400+00:00",
        "meta_object_name": "KUIPER-00179",
        "meta_object_id": "2025-301D",
        "meta_epoch": "2025-12-26T18:12:00.163008",
        "meta_mean_motion": 15.3628107,
        "meta_eccentricity": 0.0002994,
        "meta_inclination": 51.8746,
        "meta_ra_of_asc_node": 57.4564,
        "meta_arg_of_pericenter": 88.5033,
        "meta_mean_anomaly": 271.6296,
        "meta_ephemeris_type": 0,
        "meta_classification_type": "U",
        "meta_norad_cat_id": 67136,
        "meta_element_set_no": 999,
        "meta_rev_at_epoch": 270,
        "meta_bstar": 0.00083358,
        "meta_mean_motion_dot": 0.00029673,
        "meta_mean_motion_ddot": 0,
        "tle_line1": "1 67136U 25301D   25360.75833522  .00029673  00000+0  83358-3 0  9991",
        "tle_line2": "2 67136  51.8746  57.4564 0002994  88.5033 271.6296 15.36281070  2703"
      },
      "geometry": {
        "type": "Point",
        "coordinates": [
          153.53733323428736,
          51.57909879827853
        ]
      }
    },
    {
      "type": "Feature",
      "properties": {
        "norad_id": 67137,
        "name": "KUIPER-00181",
        "group": "last-30-days",
        "lat": 14.738287275416113,
        "lon": 67.57733551159907,
        "alt_km": 465.3090930762264,
        "timestamp": "2025-12-27T03:58:42.935409+00:00",
        "meta_object_name": "KUIPER-00181",
        "meta_object_id": "2025-301E",
        "meta_epoch": "2025-12-26T18:31:05.609280",
        "meta_mean_motion": 15.34464358,
        "meta_eccentricity": 0.0010017,
        "meta_inclination": 51.8644,
        "meta_ra_of_asc_node": 57.5486,
        "meta_arg_of_pericenter": 145.4576,
        "meta_mean_anomaly": 214.7062,
        "meta_ephemeris_type": 0,
        "meta_classification_type": "U",
        "meta_norad_cat_id": 67137,
        "meta_element_set_no": 999,
        "meta_rev_at_epoch": 268,
        "meta_bstar": 0.00070631,
        "meta_mean_motion_dot": 0.00023665,
        "meta_mean_motion_ddot": 0,
        "tle_line1": "1 67137U 25301E   25360.77159270  .00023665  00000+0  70631-3 0  9990",
        "tle_line2": "2 67137  51.8644  57.5486 0010017 145.4576 214.7062 15.34464358  2681"
      },
      "geometry": {
        "type": "Point",
        "coordinates": [
          67.57733551159907,
          14.738287275416113
        ]
      }
    },
    {
      "type": "Feature",
      "properties": {
        "norad_id": 67138,
        "name": "KUIPER-00183",
        "group": "last-30-days",
        "lat": 4.513407226769829,
        "lon": 59.23143933311336,
        "alt_km": 469.90178992164056,
        "timestamp": "2025-12-27T03:58:42.935419+00:00",
        "meta_object_name": "KUIPER-00183",
        "meta_object_id": "2025-301F",
        "meta_epoch": "2025-12-26T18:34:23.767680",
        "meta_mean_motion": 15.34130983,
        "meta_eccentricity": 0.001122,
        "meta_inclination": 51.8616,
        "meta_ra_of_asc_node": 57.5624,
        "meta_arg_of_pericenter": 149.9887,
        "meta_mean_anomaly": 210.1743,
        "meta_ephemeris_type": 0,
        "meta_classification_type": "U",
        "meta_norad_cat_id": 67138,
        "meta_element_set_no": 999,
        "meta_rev_at_epoch": 269,
        "meta_bstar": 0.00098114,
        "meta_mean_motion_dot": 0.00032724,
        "meta_mean_motion_ddot": 0,
        "tle_line1": "1 67138U 25301F   25360.77388620  .00032724  00000+0  98114-3 0  9996",
        "tle_line2": "2 67138  51.8616  57.5624 0011220 149.9887 210.1743 15.34130983  2697"
      },
      "geometry": {
        "type": "Point",
        "coordinates": [
          59.23143933311336,
          4.513407226769829
        ]
      }
    },
    {
      "type": "Feature",
      "properties": {
        "norad_id": 67139,
        "name": "KUIPER-00184",
        "group": "last-30-days",
        "lat": 18.11687068504796,
        "lon": 70.53579419048366,
        "alt_km": 463.99374776875356,
        "timestamp": "2025-12-27T03:58:42.935429+00:00",
        "meta_object_name": "KUIPER-00184",
        "meta_object_id": "2025-301G",
        "meta_epoch": "2025-12-26T15:22:21.745344",
        "meta_mean_motion": 15.34443698,
        "meta_eccentricity": 0.000899,
        "meta_inclination": 51.8629,
        "meta_ra_of_asc_node": 58.1701,
        "meta_arg_of_pericenter": 144.075,
        "meta_mean_anomaly": 216.0841,
        "meta_ephemeris_type": 0,
        "meta_classification_type": "U",
        "meta_norad_cat_id": 67139,
        "meta_element_set_no": 999,
        "meta_rev_at_epoch": 278,
        "meta_bstar": 8.2317e-05,
        "meta_mean_motion_dot": 2.409e-05,
        "meta_mean_motion_ddot": 0,
        "tle_line1": "1 67139U 25301G   25360.64052946  .00002409  00000+0  82317-4 0  9998",
        "tle_line2": "2 67139  51.8629  58.1701 0008990 144.0750 216.0841 15.34443698  2784"
      },
      "geometry": {
        "type": "Point",
        "coordinates": [
          70.53579419048366,
          18.11687068504796
        ]
      }
    }
  ]
}